STARLINK-37509          
1 69444U 26127B   26177.16668980  .00008002  00000+0  56313-4 0  9993
2 69444  53.1597 217.7371 0001151  87.2090 172.1653 15.75243727  4081
STARLINK-37641          
1 69445U 26127C   26177.10704802  .00190120  00000+0  12178-2 0  9994
2 69445  53.1591 217.8715 0001287  83.4079 276.7088 15.75218250  2819
STARLINK-37522          
1 69446U 26127D   26177.16668980  .00015614  00000+0  10583-3 0  9990
2 69446  53.1599 217.7333 0001310  89.3089 171.9300 15.75241231  4085
STARLINK-37640          
1 69447U 26127E   26176.58953059  .00156623  00000+0  78048-3 0  9996
2 69447  53.1579 220.3271 0001104  86.4364 273.6785 15.80936170  2736
STARLINK-37572          
1 69448U 26127F   26177.16668980 -.00000918  00000+0 -18155-5 0  9990
2 69448  53.1602 217.6309 0001317  89.4672 221.4147 15.75253043  4084
STARLINK-37643          
1 69449U 26127G   26177.16668980 -.00005463  00000+0 -31472-4 0  9997
2 69449  53.1602 217.6835 0001313  89.1013 196.0276 15.75247665  4084
STARLINK-37601          
1 69450U 26127H   26177.11612562  .00207429  00000+0  13258-2 0  9993
2 69450  53.1600 217.9306 0001174  87.0833 273.0322 15.75214846  2814
STARLINK-37578          
1 69451U 26127J   26177.16668980  .00121181  00000+0  78312-3 0  9997
2 69451  53.1586 217.5214 0001171  88.9000 275.3910 15.75247535  4085
STARLINK-37577          
1 69452U 26127K   26177.21580068 -.00079380  00000+0 -49153-3 0  9990
2 69452  53.1583 217.1184 0001599 215.5251 144.5663 15.76450646  2838
STARLINK-37500          
1 69453U 26127L   26177.16174750  .00184602  00000+0  11841-2 0  9996
2 69453  53.1588 217.4971 0001167  86.5744 273.5410 15.75203660  2828
STARLINK-37575          
1 69454U 26127M   26177.14850348 -.00709225  00000+0 -44604-2 0  9998
2 69454  53.1579 217.4080 0003769  19.8526 340.2642 15.77880733  2820
STARLINK-37642          
1 69455U 26127N   26177.16668980 -.00305783  00000+0 -20457-2 0  9991
2 69455  53.1585 217.5237 0001307  98.8501 263.5936 15.75435108  4082
STARLINK-37513          
1 69456U 26127P   26177.13962963  .00225420  00000+0  11143-2 0  9996
2 69456  53.1572 217.3467 0001445 108.2580 251.8600 15.80906750  2828
STARLINK-37563          
1 69457U 26127Q   26177.16668980 -.00004146  00000+0 -22867-4 0  9991
2 69457  53.1593 217.3645 0001319 100.5279 339.1225 15.75254365  4085
STARLINK-37565          
1 69458U 26127R   26175.68433985  .02344814  00000+0  10830-1 0  9995
2 69458  53.1587 224.6254 0003273 355.2523   4.8467 15.79767842  2599
STARLINK-37498          
1 69459U 26127S   26177.16668980 -.00040255  00000+0 -25941-3 0  9999
2 69459  53.1582 217.4662 0001178  95.4423 294.5678 15.75262374  4086
STARLINK-37384          
1 69460U 26127T   26177.16668980  .00020355  00000+0  13664-3 0  9997
2 69460  53.1593 217.3079 0001071  83.4018  23.8693 15.75238319  4082
STARLINK-37707          
1 69461U 26127U   26177.16668980  .00003943  00000+0  29874-4 0  9993
2 69461  53.1595 217.2577 0001210  96.0042  35.1567 15.75244365  4083
STARLINK-37525          
1 69462U 26127V   26177.13872492  .00160777  00000+0  10341-2 0  9992
2 69462  53.1591 217.3408 0001792  49.8220 310.2957 15.75217107  2827
STARLINK-37526          
1 69463U 26127W   26177.13451227  .00160936  00000+0  10342-2 0  9990
2 69463  53.1586 217.3115 0001451  46.4574 313.6566 15.75237548  2828
STARLINK-37574          
1 69464U 26127X   26177.16668980  .00019826  00000+0  13317-3 0  9997
2 69464  53.1590 217.2037 0001082  89.6948  67.2172 15.75244166  4089
STARLINK-37535          
1 69465U 26127Y   26177.13418344  .00136354  00000+0  87964-3 0  9997
2 69465  53.1581 217.3087 0001382  83.1132 277.0045 15.75232550  2827
STARLINK-37583          
1 69466U 26127Z   26177.11353742  .00252970  00000+0  12436-2 0  9990
2 69466  53.1585 217.1697 0001534  87.5147 272.6052 15.80950920  2823
STARLINK-37546          
1 69467U 26127AA  26177.16668980  .00009380  00000+0  65275-4 0  9995
2 69467  53.1585 217.0958 0001188  97.2095 111.2119 15.75243969  4082
STARLINK-37532          
1 69468U 26127AB  26177.11238999  .00356706  00000+0  17385-2 0  9998
2 69468  53.1582 217.1614 0001331  66.6474 293.4689 15.80856153  2827
STARLINK-37708          
1 69469U 26127AC  26177.16668980 -.00021267  00000+0 -13483-3 0  9990
2 69469  53.1583 217.0909 0001319  74.6348 135.6532 15.75251167  4093
STARLINK-37686          
1 69470U 26127AD  26177.16668980 -.00124725  00000+0 -81923-3 0  9999
2 69470  53.1589 217.0419 0001213  88.3469 145.8501 15.75301669  4098
STARLINK-37451          
1 69471U 26127AE  26177.10699437  .00240358  00000+0  11890-2 0  9999
2 69471  53.1586 217.1244 0001257  56.7102 303.4041 15.80848984  2826
DTC TEST OBJECT A       
1 69472U 26128A   26176.71163238  .00030286  00000+0  42904-3 0  9990
2 69472  54.9931 265.6375 0009525 319.6938  40.3391 15.56236417  2557
DTC TEST OBJECT B       
1 69473U 26128B   26176.64305009  .00039502  00000+0  54578-3 0  9997
2 69473  55.0025 265.9222 0009519 319.9481  40.0852 15.56781027  2536
