OBJECT_NAME,OBJECT_ID,EPOCH,MEAN_MOTION,ECCENTRICITY,INCLINATION,RA_OF_ASC_NODE,ARG_OF_PERICENTER,MEAN_ANOMALY,EPHEMERIS_TYPE,CLASSIFICATION_TYPE,NORAD_CAT_ID,ELEMENT_SET_NO,REV_AT_EPOCH,BSTAR,MEAN_MOTION_DOT,MEAN_MOTION_DDOT
STARLINK-37509,2026-127B,2026-06-26T04:00:01.998720,15.75243727,.0001151,53.1597,217.7371,87.2090,172.1653,0,U,69444,999,408,.56313E-4,.8002E-4,0
STARLINK-37641,2026-127C,2026-06-26T02:34:08.948928,15.75218250,.0001287,53.1591,217.8715,83.4079,276.7088,0,U,69445,999,281,.12178E-2,.19012E-2,0
STARLINK-37522,2026-127D,2026-06-26T04:00:01.998720,15.75241231,.000131,53.1599,217.7333,89.3089,171.9300,0,U,69446,999,408,.10583E-3,.15614E-3,0
STARLINK-37640,2026-127E,2026-06-25T14:08:55.442976,15.80936170,.0001104,53.1579,220.3271,86.4364,273.6785,0,U,69447,999,273,.78048E-3,.156623E-2,0
STARLINK-37572,2026-127F,2026-06-26T04:00:01.998720,15.75253043,.0001317,53.1602,217.6309,89.4672,221.4147,0,U,69448,999,408,-.18155E-5,-.918E-5,0
STARLINK-37643,2026-127G,2026-06-26T04:00:01.998720,15.75247665,.0001313,53.1602,217.6835,89.1013,196.0276,0,U,69449,999,408,-.31472E-4,-.5463E-4,0
STARLINK-37601,2026-127H,2026-06-26T02:47:13.253568,15.75214846,.0001174,53.1600,217.9306,87.0833,273.0322,0,U,69450,999,281,.13258E-2,.207429E-2,0
STARLINK-37578,2026-127J,2026-06-26T04:00:01.998720,15.75247535,.0001171,53.1586,217.5214,88.9000,275.3910,0,U,69451,999,408,.78312E-3,.121181E-2,0
STARLINK-37577,2026-127K,2026-06-26T05:10:45.178752,15.76450646,.0001599,53.1583,217.1184,215.5251,144.5663,0,U,69452,999,283,-.49153E-3,-.7938E-3,0
STARLINK-37500,2026-127L,2026-06-26T03:52:54.984000,15.75203660,.0001167,53.1588,217.4971,86.5744,273.5410,0,U,69453,999,282,.11841E-2,.184602E-2,0
STARLINK-37575,2026-127M,2026-06-26T03:33:50.700672,15.77880733,.0003769,53.1579,217.4080,19.8526,340.2642,0,U,69454,999,282,-.44604E-2,-.709225E-2,0
STARLINK-37642,2026-127N,2026-06-26T04:00:01.998720,15.75435108,.0001307,53.1585,217.5237,98.8501,263.5936,0,U,69455,999,408,-.20457E-2,-.305783E-2,0
STARLINK-37513,2026-127P,2026-06-26T03:21:04.000032,15.80906750,.0001445,53.1572,217.3467,108.2580,251.8600,0,U,69456,999,282,.11143E-2,.22542E-2,0
STARLINK-37563,2026-127Q,2026-06-26T04:00:01.998720,15.75254365,.0001319,53.1593,217.3645,100.5279,339.1225,0,U,69457,999,408,-.22867E-4,-.4146E-4,0
STARLINK-37565,2026-127R,2026-06-24T16:25:26.963040,15.79767842,.00032736,53.1587,224.6254,355.2523,4.8467,0,U,69458,999,259,.10829511E-1,.2344814E-1,0
STARLINK-37498,2026-127S,2026-06-26T04:00:01.998720,15.75262374,.0001178,53.1582,217.4662,95.4423,294.5678,0,U,69459,999,408,-.25941E-3,-.40255E-3,0
STARLINK-37384,2026-127T,2026-06-26T04:00:01.998720,15.75238319,.0001071,53.1593,217.3079,83.4018,23.8693,0,U,69460,999,408,.13664E-3,.20355E-3,0
STARLINK-37707,2026-127U,2026-06-26T04:00:01.998720,15.75244365,.000121,53.1595,217.2577,96.0042,35.1567,0,U,69461,999,408,.29874E-4,.3943E-4,0
STARLINK-37525,2026-127V,2026-06-26T03:19:45.833088,15.75217107,.0001792,53.1591,217.3408,49.8220,310.2957,0,U,69462,999,282,.10341E-2,.160777E-2,0
STARLINK-37526,2026-127W,2026-06-26T03:13:41.860128,15.75237548,.0001451,53.1586,217.3115,46.4574,313.6566,0,U,69463,999,282,.10342E-2,.160936E-2,0
STARLINK-37574,2026-127X,2026-06-26T04:00:01.998720,15.75244166,.0001082,53.1590,217.2037,89.6948,67.2172,0,U,69464,999,408,.13317E-3,.19826E-3,0
STARLINK-37535,2026-127Y,2026-06-26T03:13:13.449216,15.75232550,.0001382,53.1581,217.3087,83.1132,277.0045,0,U,69465,999,282,.87964E-3,.136354E-2,0
STARLINK-37583,2026-127Z,2026-06-26T02:43:29.633088,15.80950920,.0001534,53.1585,217.1697,87.5147,272.6052,0,U,69466,999,282,.12436E-2,.25297E-2,0
STARLINK-37546,2026-127AA,2026-06-26T04:00:01.998720,15.75243969,.0001188,53.1585,217.0958,97.2095,111.2119,0,U,69467,999,408,.65275E-4,.938E-4,0
STARLINK-37532,2026-127AB,2026-06-26T02:41:50.495136,15.80856153,.0001331,53.1582,217.1614,66.6474,293.4689,0,U,69468,999,282,.17385E-2,.356706E-2,0
STARLINK-37708,2026-127AC,2026-06-26T04:00:01.998720,15.75251167,.0001319,53.1583,217.0909,74.6348,135.6532,0,U,69469,999,409,-.13483E-3,-.21267E-3,0
STARLINK-37686,2026-127AD,2026-06-26T04:00:01.998720,15.75301669,.0001213,53.1589,217.0419,88.3469,145.8501,0,U,69470,999,409,-.81923E-3,-.124725E-2,0
STARLINK-37451,2026-127AE,2026-06-26T02:34:04.313568,15.80848984,.0001257,53.1586,217.1244,56.7102,303.4041,0,U,69471,999,282,.1189E-2,.240358E-2,0
DTC TEST OBJECT A,2026-128A,2026-06-25T17:04:45.037632,15.56236417,.0009525,54.9931,265.6375,319.6938,40.3391,0,U,69472,999,255,.42904E-3,.30286E-3,0
DTC TEST OBJECT B,2026-128B,2026-06-25T15:25:59.527776,15.56781027,.0009519,55.0025,265.9222,319.9481,40.0852,0,U,69473,999,253,.54578E-3,.39502E-3,0
